COMMENT,ORIGINATOR,NORAD_CAT_ID,OBJECT_NAME,OBJECT_TYPE,CLASSIFICATION_TYPE,INTLDES,EPOCH,EPOCH_MICROSECONDS,MEAN_MOTION,ECCENTRICITY,INCLINATION,RA_OF_ASC_NODE,ARG_OF_PERICENTER,MEAN_ANOMALY,EPHEMERIS_TYPE,ELEMENT_SET_NO,REV_AT_EPOCH,BSTAR,MEAN_MOTION_DOT,MEAN_MOTION_DDOT,FILE,TLE_LINE0,TLE_LINE1,TLE_LINE2,OBJECT_ID,OBJECT_NUMBER,SEMIMAJOR_AXIS,PERIOD,APOGEE,PERIGEE,DECAYED
"GENERATED VIA SPACETRACK.ORG API","18 SPCS","55765","STARLINK-5595","PAYLOAD","U","23028AA","2023-10-25 21:49:28","621920","14.98337093","0.0002759","70","247.5513","271.5738","88.5105","0","999","3684","0.000023764","0.00000191","0","4052988","0 STARLINK-5595","1 55765U 23028AA  23298.90935905  .00000191  00000-0  23764-4 0  9994","2 55765  70.0000 247.5513 0002759 271.5738  88.5105 14.98337093 36845","2023-028AA","55765","6950.171","96.107","573.954","570.118","0"
"GENERATED VIA SPACETRACK.ORG API","18 SPCS","55766","STARLINK-5599","PAYLOAD","U","23028AB","2023-10-25 22:49:33","623040","14.98328356","0.0002772","70","247.2946","265.1195","94.9648","0","999","3685","0.00000050201","-0.00000087","0","4052988","0 STARLINK-5599","1 55766U 23028AB  23298.95108360 -.00000087  00000-0  50201-6 0  9990","2 55766  70.0000 247.2946 0002772 265.1195  94.9648 14.98328356 36850","2023-028AB","55766","6950.198","96.107","573.990","570.136","0"
"GENERATED VIA SPACETRACK.ORG API","18 SPCS","56452","STARLINK-5986","PAYLOAD","U","23064E","2023-10-26 02:06:30","633120","14.98333266","0.0003136","70","167.0945","271.8982","88.1818","0","999","2558","-0.000014032","-0.0000026","0","4054082","0 STARLINK-5986","1 56452U 23064E   23299.08785455 -.00000260  00000-0 -14032-4 0  9998","2 56452  70.0000 167.0945 0003136 271.8982  88.1818 14.98333266 25582","2023-064E","56452","6950.183","96.107","574.227","569.868","0"
"GENERATED VIA SPACETRACK.ORG API","18 SPCS","55399","STARLINK-5276","PAYLOAD","U","23014J","2023-10-26 02:53:13","354080","14.9830636","0.0002799","70","86.7797","268.8096","91.2742","0","999","4146","0.00039842","0.00004661","0","4053158","0 STARLINK-5276","1 55399U 23014J   23299.12029345  .00004661  00000-0  39842-3 0  9998","2 55399  70.0000  86.7797 0002799 268.8096  91.2742 14.98306360 41460","2023-014J","55399","6950.266","96.109","574.076","570.186","0"
"GENERATED VIA SPACETRACK.ORG API","18 SPCS","55670","STARLINK-5423","PAYLOAD","U","23021AU","2023-10-26 03:06:54","543744","14.98332192","0.0003175","70","186.7749","270.4822","89.5974","0","999","3933","0.000015604","0.00000093","0","4053449","0 STARLINK-5423","1 55670U 23021AU  23299.12979796  .00000093  00000-0  15604-4 0  9998","2 55670  70.0000 186.7749 0003175 270.4822  89.5974 14.98332192 39337","2023-021AU","55670","6950.186","96.107","574.258","569.844","0"
"GENERATED VIA SPACETRACK.ORG API","18 SPCS","55670","STARLINK-5423","PAYLOAD","U","23021AU","2023-10-26 03:06:54","543744","14.98332192","0.0003175","70","186.7749","270.4822","89.5974","0","999","3963","0.000015604","0.00000093","0","4054082","0 STARLINK-5423","1 55670U 23021AU  23299.12979796  .00000093  00000-0  15604-4 0  9998","2 55670  70.0000 186.7749 0003175 270.4822  89.5974 14.98332192 39630","2023-021AU","55670","6950.186","96.107","574.258","569.844","0"
"GENERATED VIA SPACETRACK.ORG API","18 SPCS","49163","STARLINK-3088","PAYLOAD","U","21082AK","2023-10-26 04:05:49","933248","14.98321147","0.0002261","70","296.733","249.1573","110.9344","0","999","11799","0.00027743","0.00003218","0","4053043","0 STARLINK-3088","1 49163U 21082AK  23299.17071682  .00003218  00000-0  27743-3 0  9993","2 49163  70.0000 296.7330 0002261 249.1573 110.9344 14.98321147117993","2021-082AK","49163","6950.220","96.108","573.657","570.514","0"
"GENERATED VIA SPACETRACK.ORG API","18 SPCS","55772","STARLINK-5835","PAYLOAD","U","23028AH","2023-10-26 06:26:10","937760","14.98333476","0.0002719","70","246.394","269.0181","91.0667","0","999","3690","0.000043123","0.00000422","0","4054082","0 STARLINK-5835","1 55772U 23028AH  23299.26818215  .00000422  00000-0  43123-4 0  9994","2 55772  70.0000 246.3940 0002719 269.0181  91.0667 14.98333476 36904","2023-028AH","55772","6950.182","96.107","573.937","570.157","0"
"GENERATED VIA SPACETRACK.ORG API","18 SPCS","56783","STARLINK-6357","PAYLOAD","U","23078S","2023-10-26 07:37:57","425664","15.69933523","0.0002216","70","357.0687","277.752","82.3424","0","999","2354","0.0000016948","-0.00000008","0","4053664","0 STARLINK-6357","1 56783U 23078S   23299.31802576 -.00000008  00000-0  16948-5 0  9998","2 56783  70.0000 357.0687 0002216 277.7520  82.3424 15.69933523 23548","2023-078S","56783","6737.224","91.724","360.582","357.596","0"
"GENERATED VIA SPACETRACK.ORG API","18 SPCS","55754","STARLINK-5612","PAYLOAD","U","23028P","2023-10-26 08:32:41","539776","14.98333182","0.0002449","70","266.1819","260.1732","99.9151","0","999","3642","0.000039677","0.00000381","0","4054082","0 STARLINK-5612","1 55754U 23028P   23299.35603634  .00000381  00000-0  39677-4 0  9994","2 55754  70.0000 266.1819 0002449 260.1732  99.9151 14.98333182 36429","2023-028P","55754","6950.183","96.107","573.750","570.346","0"
"GENERATED VIA SPACETRACK.ORG API","18 SPCS","55926","STARLINK-5921","PAYLOAD","U","23037N","2023-10-26 10:57:34","936704","14.98334624","0.000224","70","306.1376","251.7984","108.2931","0","999","3437","-0.00010011","-0.00001287","0","4054082","0 STARLINK-5921","1 55926U 23037N   23299.45665436 -.00001287  00000-0 -10011-3 0  9992","2 55926  70.0000 306.1376 0002240 251.7984 108.2931 14.98334624 34371","2023-037N","55926","6950.179","96.107","573.600","570.487","0"
"GENERATED VIA SPACETRACK.ORG API","18 SPCS","55914","STARLINK-5856","PAYLOAD","U","23037A","2023-10-26 11:33:58","458240","14.98333618","0.0002682","70","326.1073","277.1705","82.9149","0","999","3457","0.00020602","0.00002366","0","4054082","0 STARLINK-5856","1 55914U 23037A   23299.48192660  .00002366  00000-0  20602-3 0  9990","2 55914  70.0000 326.1073 0002682 277.1705  82.9149 14.98333618 34570","2023-037A","55914","6950.182","96.107","573.911","570.183","0"
"GENERATED VIA SPACETRACK.ORG API","18 SPCS","55406","STARLINK-5630","PAYLOAD","U","23014R","2023-10-26 11:47:59","385984","14.98321262","0.0003209","70","86.0724","269.9093","90.1698","0","999","4151","0.000076531","0.0000082","0","4053761","0 STARLINK-5630","1 55406U 23014R   23299.49165956  .00000820  00000-0  76531-4 0  9996","2 55406  70.0000  86.0724 0003209 269.9093  90.1698 14.98321262 41510","2023-014R","55406","6950.220","96.108","574.315","569.855","0"
"GENERATED VIA SPACETRACK.ORG API","18 SPCS","55284","STARLINK-5337","PAYLOAD","U","23010R","2023-10-26 12:05:38","650848","14.98335819","0.0002878","70","65.7249","266.5329","93.55","0","999","4288","0.00010902","0.00001208","0","4053981","0 STARLINK-5337","1 55284U 23010R   23299.50391957  .00001208  00000-0  10902-3 0  9990","2 55284  70.0000  65.7249 0002878 266.5329  93.5500 14.98335819 42889","2023-010R","55284","6950.175","96.107","574.040","570.040","0"
"GENERATED VIA SPACETRACK.ORG API","18 SPCS","55280","STARLINK-5331","PAYLOAD","U","23010M","2023-10-26 12:23:41","5248","14.98327919","0.0002969","70","65.768","268.1089","91.973","0","999","4287","0.000014114","0.00000075","0","4053986","0 STARLINK-5331","1 55280U 23010M   23299.51644682  .00000075  00000-0  14114-4 0  9994","2 55280  70.0000  65.7680 0002969 268.1089  91.9730 14.98327919 42874","2023-010M","55280","6950.199","96.107","574.128","570.001","0"
"GENERATED VIA SPACETRACK.ORG API","18 SPCS","55280","STARLINK-5331","PAYLOAD","U","23010M","2023-10-26 12:23:41","5248","14.98327919","0.0002969","70","65.768","268.1089","91.973","0","999","4318","0.000014114","0.00000075","0","4054082","0 STARLINK-5331","1 55280U 23010M   23299.51644682  .00000075  00000-0  14114-4 0  9994","2 55280  70.0000  65.7680 0002969 268.1089  91.9730 14.98327919 43189","2023-010M","55280","6950.199","96.107","574.128","570.001","0"
"GENERATED VIA SPACETRACK.ORG API","18 SPCS","55399","STARLINK-5276","PAYLOAD","U","23014J","2023-10-26 12:30:01","502208","14.98327611","0.0002908","70","85.7698","270.6261","89.4565","0","999","4152","-0.000038856","-0.00000557","0","4053627","0 STARLINK-5276","1 55399U 23014J   23299.52085072 -.00000557  00000-0 -38856-4 0  9998","2 55399  70.0000  85.7698 0002908 270.6261  89.4565 14.98327611 41527","2023-014J","55399","6950.200","96.107","574.086","570.044","0"
"GENERATED VIA SPACETRACK.ORG API","18 SPCS","55405","STARLINK-5623","PAYLOAD","U","23014Q","2023-10-26 13:00:04","757472","14.98327866","0.0003151","70","85.845","270.7108","89.369","0","999","4246","-0.000025935","-0.00000402","0","4054082","0 STARLINK-5623","1 55405U 23014Q   23299.54172173 -.00000402  00000-0 -25935-4 0  9990","2 55405  70.0000  85.8450 0003151 270.7108  89.3690 14.98327866 42468","2023-014Q","55405","6950.199","96.107","574.254","569.874","0"
"GENERATED VIA SPACETRACK.ORG API","18 SPCS","55402","STARLINK-5071","PAYLOAD","U","23014M","2023-10-26 13:06:05","105952","14.98331709","0.0003025","70","85.8598","268.196","91.8852","0","999","4246","0.0000017019","-0.00000073","0","4054082","0 STARLINK-5071","1 55402U 23014M   23299.54589243 -.00000073  00000-0  17019-5 0  9995","2 55402  70.0000  85.8598 0003025 268.1960  91.8852 14.98331709 42464","2023-014M","55402","6950.188","96.107","574.155","569.950","0"
"GENERATED VIA SPACETRACK.ORG API","18 SPCS","55270","STARLINK-5301","PAYLOAD","U","23010B","2023-10-26 13:23:47","448384","14.98330366","0.0003065","70","65.9202","272.507","87.5738","0","999","4319","0.000028247","0.00000244","0","4054082","0 STARLINK-5301","1 55270U 23010B   23299.55818806  .00000244  00000-0  28247-4 0  9998","2 55270  70.0000  65.9202 0003065 272.5070  87.5738 14.98330366 43197","2023-010B","55270","6950.192","96.107","574.187","569.927","0"
